{"type": "FeatureCollection", "features": [ {"type": "Feature", "properties": {"norad_id": 30411, "name": "FENGYUN 1C DEB", "group": "fengyun-1c-debris", "lat": -49.01900933505034, "lon": -91.72678657988138, "alt_km": 953.7197842627347, "timestamp": "2025-12-13T16:48:32.986538+00:00", "meta": {"OBJECT_NAME": "FENGYUN 1C DEB", "OBJECT_ID": "1999-025AEA", "EPOCH": "2025-12-12T17:09:56.462976", "MEAN_MOTION": 14.07646282, "ECCENTRICITY": 0.0122778, "INCLINATION": 98.5798, "RA_OF_ASC_NODE": 257.329, "ARG_OF_PERICENTER": 106.7164, "MEAN_ANOMALY": 254.7522, "EPHEMERIS_TYPE": 0, "CLASSIFICATION_TYPE": "U", "NORAD_CAT_ID": 30411, "ELEMENT_SET_NO": 999, "REV_AT_EPOCH": 95983, "BSTAR": 0.0022378214, "MEAN_MOTION_DOT": 4.011e-05, "MEAN_MOTION_DDOT": 0}, "tle": {"line1": "1 30411U 99025AEA 25346.71523684  .00004011  00000+0  22378-2 0  9999", "line2": "2 30411  98.5798 257.3290 0122778 106.7164 254.7522 14.07646282959838"}}, "geometry": {"type": "Point", "coordinates": [-91.72678657988138, -49.01900933505034]}}, {"type": "Feature", "properties": {"norad_id": 30413, "name": "FENGYUN 1C DEB", "group": "fengyun-1c-debris", "lat": 66.97100930077532, "lon": -169.23809056371587, "alt_km": 802.7296003572774, "timestamp": "2025-12-13T16:48:32.986549+00:00", "meta": {"OBJECT_NAME": "FENGYUN 1C DEB", "OBJECT_ID": "1999-025AEC", "EPOCH": "2025-12-12T13:57:37.785312", "MEAN_MOTION": 14.32533585, "ECCENTRICITY": 0.00452898, "INCLINATION": 102.0623, "RA_OF_ASC_NODE": 219.4128, "ARG_OF_PERICENTER": 217.2104, "MEAN_ANOMALY": 206.9938, "EPHEMERIS_TYPE": 0, "CLASSIFICATION_TYPE": "U", "NORAD_CAT_ID": 30413, "ELEMENT_SET_NO": 999, "REV_AT_EPOCH": 97137, "BSTAR": 0.0031322772, "MEAN_MOTION_DOT": 8.531e-05, "MEAN_MOTION_DDOT": 0}, "tle": {"line1": "1 30413U 99025AEC 25346.58168733  .00008531  00000+0  31323-2 0  9997", "line2": "2 30413 102.0623 219.4128 0045289 217.2104 206.9938 14.32533585971372"}}, "geometry": {"type": "Point", "coordinates": [-169.23809056371587, 66.97100930077532]}}, {"type": "Feature", "properties": {"norad_id": 30414, "name": "FENGYUN 1C DEB", "group": "fengyun-1c-debris", "lat": 16.08866661132515, "lon": -32.35799026357575, "alt_km": 739.7453738816366, "timestamp": "2025-12-13T16:48:32.986558+00:00", "meta": {"OBJECT_NAME": "FENGYUN 1C DEB", "OBJECT_ID": "1999-025AED", "EPOCH": "2025-12-12T23:18:12.177792", "MEAN_MOTION": 14.3416519, "ECCENTRICITY": 0.00583851, "INCLINATION": 99.0804, "RA_OF_ASC_NODE": 144.2326, "ARG_OF_PERICENTER": 188.1399, "MEAN_ANOMALY": 171.8842, "EPHEMERIS_TYPE": 0, "CLASSIFICATION_TYPE": "U", "NORAD_CAT_ID": 30414, "ELEMENT_SET_NO": 999, "REV_AT_EPOCH": 97090, "BSTAR": 0.0036617651, "MEAN_MOTION_DOT": 0.00010422, "MEAN_MOTION_DDOT": 0}, "tle": {"line1": "1 30414U 99025AED 25346.97097428  .00010422  00000+0  36618-2 0  9997", "line2": "2 30414  99.0804 144.2326 0058385 188.1399 171.8842 14.34165190970904"}}, "geometry": {"type": "Point", "coordinates": [-32.35799026357575, 16.08866661132515]}}, {"type": "Feature", "properties": {"norad_id": 30415, "name": "FENGYUN 1C DEB", "group": "fengyun-1c-debris", "lat": 24.059594277866385, "lon": 43.59420333122589, "alt_km": 1081.3051159055276, "timestamp": "2025-12-13T16:48:32.986569+00:00", "meta": {"OBJECT_NAME": "FENGYUN 1C DEB", "OBJECT_ID": "1999-025AEE", "EPOCH": "2025-12-12T22:18:23.169312", "MEAN_MOTION": 13.6893564, "ECCENTRICITY": 0.02386867, "INCLINATION": 99.6459, "RA_OF_ASC_NODE": 47.1772, "ARG_OF_PERICENTER": 268.7812, "MEAN_ANOMALY": 275.9263, "EPHEMERIS_TYPE": 0, "CLASSIFICATION_TYPE": "U", "NORAD_CAT_ID": 30415, "ELEMENT_SET_NO": 999, "REV_AT_EPOCH": 93880, "BSTAR": 0.001719258, "MEAN_MOTION_DOT": 1.764e-05, "MEAN_MOTION_DDOT": 0}, "tle": {"line1": "1 30415U 99025AEE 25346.92943483  .00001764  00000+0  17193-2 0  9990", "line2": "2 30415  99.6459  47.1772 0238686 268.7812 275.9263 13.68935640938809"}}, "geometry": {"type": "Point", "coordinates": [43.59420333122589, 24.059594277866385]}}, {"type": "Feature", "properties": {"norad_id": 30416, "name": "FENGYUN 1C DEB", "group": "fengyun-1c-debris", "lat": -72.93950745820008, "lon": 161.62977440258246, "alt_km": 876.7614207198058, "timestamp": "2025-12-13T16:48:32.986579+00:00", "meta": {"OBJECT_NAME": "FENGYUN 1C DEB", "OBJECT_ID": "1999-025AEF", "EPOCH": "2025-12-12T19:03:13.072320", "MEAN_MOTION": 14.02629894, "ECCENTRICITY": 0.0055506, "INCLINATION": 98.8351, "RA_OF_ASC_NODE": 11.2022, "ARG_OF_PERICENTER": 189.7128, "MEAN_ANOMALY": 170.297, "EPHEMERIS_TYPE": 0, "CLASSIFICATION_TYPE": "U", "NORAD_CAT_ID": 30416, "ELEMENT_SET_NO": 999, "REV_AT_EPOCH": 96625, "BSTAR": 0.0005441657, "MEAN_MOTION_DOT": 8.08e-06, "MEAN_MOTION_DDOT": 0}, "tle": {"line1": "1 30416U 99025AEF 25346.79390130  .00000808  00000+0  54417-3 0  9990", "line2": "2 30416  98.8351  11.2022 0055506 189.7128 170.2970 14.02629894966254"}}, "geometry": {"type": "Point", "coordinates": [161.62977440258246, -72.93950745820008]}}, {"type": "Feature", "properties": {"norad_id": 30417, "name": "FENGYUN 1C DEB", "group": "fengyun-1c-debris", "lat": 25.536622604298447, "lon": 161.85042269730047, "alt_km": 805.1839520293379, "timestamp": "2025-12-13T16:48:32.986589+00:00", "meta": {"OBJECT_NAME": "FENGYUN 1C DEB", "OBJECT_ID": "1999-025AEG", "EPOCH": "2025-12-12T21:41:55.019328", "MEAN_MOTION": 14.14663041, "ECCENTRICITY": 0.00644434, "INCLINATION": 98.693, "RA_OF_ASC_NODE": 336.8834, "ARG_OF_PERICENTER": 119.5356, "MEAN_ANOMALY": 301.0927, "EPHEMERIS_TYPE": 0, "CLASSIFICATION_TYPE": "U", "NORAD_CAT_ID": 30417, "ELEMENT_SET_NO": 999, "REV_AT_EPOCH": 97391, "BSTAR": 0.00038927655, "MEAN_MOTION_DOT": 7.22e-06, "MEAN_MOTION_DDOT": 0}, "tle": {"line1": "1 30417U 99025AEG 25346.90410902  .00000722  00000+0  38928-3 0  9998", "line2": "2 30417  98.6930 336.8834 0064443 119.5356 301.0927 14.14663041973919"}}, "geometry": {"type": "Point", "coordinates": [161.85042269730047, 25.536622604298447]}}, {"type": "Feature", "properties": {"norad_id": 30418, "name": "FENGYUN 1C DEB", "group": "fengyun-1c-debris", "lat": 5.8747050331129245, "lon": -31.49507536436265, "alt_km": 580.2795664253099, "timestamp": "2025-12-13T16:48:32.986599+00:00", "meta": {"OBJECT_NAME": "FENGYUN 1C DEB", "OBJECT_ID": "1999-025AEH", "EPOCH": "2025-12-12T22:49:18.289632", "MEAN_MOTION": 14.84209262, "ECCENTRICITY": 0.01112392, "INCLINATION": 98.8407, "RA_OF_ASC_NODE": 146.7573, "ARG_OF_PERICENTER": 114.938, "MEAN_ANOMALY": 15.6791, "EPHEMERIS_TYPE": 0, "CLASSIFICATION_TYPE": "U", "NORAD_CAT_ID": 30418, "ELEMENT_SET_NO": 999, "REV_AT_EPOCH": 595, "BSTAR": 0.0013124129, "MEAN_MOTION_DOT": 0.00012207, "MEAN_MOTION_DDOT": 0}, "tle": {"line1": "1 30418U 99025AEH 25346.95090613  .00012207  00000+0  13124-2 0  9998", "line2": "2 30418  98.8407 146.7573 0111239 114.9380  15.6791 14.84209262  5956"}}, "geometry": {"type": "Point", "coordinates": [-31.49507536436265, 5.8747050331129245]}}, {"type": "Feature", "properties": {"norad_id": 30419, "name": "FENGYUN 1C DEB", "group": "fengyun-1c-debris", "lat": 47.32696536210737, "lon": -75.64230186525603, "alt_km": 793.258168468642, "timestamp": "2025-12-13T16:48:32.986609+00:00", "meta": {"OBJECT_NAME": "FENGYUN 1C DEB", "OBJECT_ID": "1999-025AEJ", "EPOCH": "2025-12-12T20:21:24.409152", "MEAN_MOTION": 14.18039774, "ECCENTRICITY": 0.00530842, "INCLINATION": 99.2401, "RA_OF_ASC_NODE": 293.6417, "ARG_OF_PERICENTER": 24.6895, "MEAN_ANOMALY": 355.3263, "EPHEMERIS_TYPE": 0, "CLASSIFICATION_TYPE": "U", "NORAD_CAT_ID": 30419, "ELEMENT_SET_NO": 999, "REV_AT_EPOCH": 97350, "BSTAR": 0.0012872136, "MEAN_MOTION_DOT": 2.628e-05, "MEAN_MOTION_DDOT": 0}, "tle": {"line1": "1 30419U 99025AEJ 25346.84819918  .00002628  00000+0  12872-2 0  9999", "line2": "2 30419  99.2401 293.6417 0053084  24.6895 355.3263 14.18039774973505"}}, "geometry": {"type": "Point", "coordinates": [-75.64230186525603, 47.32696536210737]}}, {"type": "Feature", "properties": {"norad_id": 30432, "name": "FENGYUN 1C DEB", "group": "fengyun-1c-debris", "lat": 59.56555866336353, "lon": 81.95390357393003, "alt_km": 797.5776462659687, "timestamp": "2025-12-13T16:48:32.986619+00:00", "meta": {"OBJECT_NAME": "FENGYUN 1C DEB", "OBJECT_ID": "1999-025AET", "EPOCH": "2025-12-12T16:55:24.062304", "MEAN_MOTION": 14.4068069, "ECCENTRICITY": 0.00830054, "INCLINATION": 98.835, "RA_OF_ASC_NODE": 245.575, "ARG_OF_PERICENTER": 339.0872, "MEAN_ANOMALY": 20.6927, "EPHEMERIS_TYPE": 0, "CLASSIFICATION_TYPE": "U", "NORAD_CAT_ID": 30432, "ELEMENT_SET_NO": 999, "REV_AT_EPOCH": 98734, "BSTAR": 0.0011713651, "MEAN_MOTION_DOT": 3.849e-05, "MEAN_MOTION_DDOT": 0}, "tle": {"line1": "1 30432U 99025AET 25346.70513961  .00003849  00000+0  11714-2 0  9998", "line2": "2 30432  98.8350 245.5750 0083005 339.0872  20.6927 14.40680690987348"}}, "geometry": {"type": "Point", "coordinates": [81.95390357393003, 59.56555866336353]}}, {"type": "Feature", "properties": {"norad_id": 30434, "name": "FENGYUN 1C DEB", "group": "fengyun-1c-debris", "lat": 79.19112100892146, "lon": -149.41630425143325, "alt_km": 978.1669434553078, "timestamp": "2025-12-13T16:48:32.986629+00:00", "meta": {"OBJECT_NAME": "FENGYUN 1C DEB", "OBJECT_ID": "1999-025AEV", "EPOCH": "2025-12-10T11:22:16.932576", "MEAN_MOTION": 13.90647911, "ECCENTRICITY": 0.01207823, "INCLINATION": 98.9988, "RA_OF_ASC_NODE": 331.362, "ARG_OF_PERICENTER": 237.4216, "MEAN_ANOMALY": 275.0449, "EPHEMERIS_TYPE": 0, "CLASSIFICATION_TYPE": "U", "NORAD_CAT_ID": 30434, "ELEMENT_SET_NO": 999, "REV_AT_EPOCH": 95675, "BSTAR": 0.00047001157, "MEAN_MOTION_DOT": 5.78e-06, "MEAN_MOTION_DDOT": 0}, "tle": {"line1": "1 30434U 99025AEV 25344.47380709  .00000578  00000+0  47001-3 0  9999", "line2": "2 30434  98.9988 331.3620 0120782 237.4216 275.0449 13.90647911956754"}}, "geometry": {"type": "Point", "coordinates": [-149.41630425143325, 79.19112100892146]}}]}